HORYU-4                 
1 41340U 16012D   20275.66199594  .00000683  00000-0  44799-4 0  9991
2 41340  31.0063  15.3818 0013741 122.8865 237.3095 15.01569085253853
E-ST@R-II               
1 41459U 16025D   20275.86354557  .00004455  00000-0  22465-3 0  9996
2 41459  98.1129  31.4692 0164089 213.1896 145.8954 15.06704576243464
AAUSAT 4                
1 41460U 16025E   20275.83432841  .00004993  00000-0  24346-3 0  9995
2 41460  98.1109  34.1593 0152483 200.7137 158.7867 15.09133420243686
BEESAT-4                
1 41619U 16040W   20275.84944216  .00002152  00000-0  90870-4 0  9994
2 41619  97.3088 332.8181 0011722 156.4787 203.6990 15.24277659225607
CANX-7                  
1 41788U 16059F   20275.85288020  .00010580  00000-0  14062-2 0  9997
2 41788  98.2574   6.5078 0022162 317.6231  42.3212 14.79773102215549
RAVAN                   
1 41849U 16067B   20275.84077860  .00000501  00000-0  46942-4 0  9997
2 41849  97.9408  27.5595 0008031 245.5317 114.5068 14.98639147212559
CELTEE 1                
1 41850U 16067C   20275.86810868  .00000627  00000-0  59432-4 0  9991
2 41850  97.9361  24.9929 0007074 250.4740 109.5717 14.97238221212420
OPTICUBE 04             
1 41851U 16067D   20275.88417820 -.00000375  00000-0 -27350-4 0  9991
2 41851  97.9343  24.5695 0007560 255.2721 104.7662 14.96959698212400
AEROCUBE 8D             
1 41852U 16067E   20275.90059159  .00000280  00000-0  29625-4 0  9992
2 41852  97.9340  24.4287 0008518 253.8116 106.2168 14.96962174212388
AEROCUBE 8C             
1 41853U 16067F   20275.86783094  .00000546  00000-0  52792-4 0  9996
2 41853  97.9348  24.2896 0008334 255.8163 104.2132 14.96935282212379
PROMETHEUS 2-1          
1 41854U 16067G   20275.88048335  .00000066  00000-0  11015-4 0  9991
2 41854  97.9358  24.7013 0008860 255.6301 104.3937 14.97284549212393
PROMETHEUS 2-3          
1 41855U 16067H   20275.81342747  .00000084  00000-0  12502-4 0  9991
2 41855  97.9361  24.6712 0009013 256.2697 103.7521 14.97293999212389
INS-1B                  
1 41954U 17008G   20275.84866343  .00002007  00000-0  83164-4 0  9992
2 41954  97.3443 338.2988 0007263 289.1923  70.8529 15.25030254201582
BGUSAT                  
1 41999U 17008BD  20275.71411443  .00003246  00000-0  12178-3 0  9996
2 41999  97.3572 342.9272 0006147 298.7828  61.2794 15.27927938201171
DIDO-2                  
1 42000U 17008BE  20275.83513407  .00001306  00000-0  55740-4 0  9994
2 42000  97.3448 338.7480 0007036 313.2881  46.7770 15.24651039200973
PEASSS                  
1 42015U 17008BV  20275.86275697  .00001746  00000-0  71009-4 0  9993
2 42015  97.3480 340.5980 0004957 319.4235  40.6633 15.25841022201573
AL-FARABI 1             
1 42016U 17008BW  20275.75773848  .00002230  00000-0  87558-4 0  9998
2 42016  97.3513 341.7206 0004751 318.7558  41.3321 15.26746599201742
NAYIF-1 (EO-88)         
1 42017U 17008BX  20275.86463172  .00002323  00000-0  90965-4 0  9996
2 42017  97.3506 341.8360 0004798 317.5120  42.5747 15.26790137201786
UCLSAT                  
1 42765U 17036A   20275.87895349  .00001826  00000-0  78700-4 0  9993
2 42765  97.2897 327.2097 0011622  20.0299 340.1392 15.23757806182784
LITUANICASAT-2          
1 42768U 17036D   20275.81288384  .00003111  00000-0  12921-3 0  9996
2 42768  97.2958 327.2976 0014425   8.0558 352.0909 15.24464702182045
AALTO-1                 
1 42775U 17036L   20275.76886310  .00001132  00000-0  52464-4 0  9999
2 42775  97.2871 324.6129 0014028  13.0900 347.0697 15.21993235181844
URSA MAIOR              
1 42776U 17036M   20275.67924632  .00001261  00000-0  57778-4 0  9996
2 42776  97.2885 324.8577 0013833  13.1272 347.0321 15.22189648181845
COMPASS 2               
1 42777U 17036N   20275.84789907  .00002453  00000-0  10326-3 0  9991
2 42777  97.2946 327.7054 0012197  10.5849 349.5643 15.24239547182008
DIAMOND RED             
1 42783U 17036U   20275.85711450  .00001494  00000-0  66281-4 0  9993
2 42783  97.2897 326.3440 0012411  21.8500 338.3264 15.23028320181943
PEGASUS                 
1 42784U 17036V   20275.92626625  .00001703  00000-0  74280-4 0  9992
2 42784  97.2901 326.9014 0012231  20.3799 339.7924 15.23433624181986
DIAMOND GREEN           
1 42785U 17036W   20275.72459129  .00001470  00000-0  65302-4 0  9990
2 42785  97.2900 326.2541 0012349  22.9784 337.2003 15.23023323181999
DIAMOND BLUE            
1 42786U 17036X   20275.85510848  .00001497  00000-0  66421-4 0  9993
2 42786  97.2899 326.3755 0012188  22.8251 337.3525 15.23028444182017
NUDTSAT                 
1 42787U 17036Y   20275.95401999  .00003039  00000-0  12494-3 0  9995
2 42787  97.2939 328.5803 0011639  15.9331 344.2272 15.24856175181929
SUCHAI                  
1 42788U 17036Z   20275.84514039  .00002061  00000-0  87757-4 0  9993
2 42788  97.2912 327.5131 0011670  19.3138 340.8540 15.24025801182084
SKCUBE                  
1 42789U 17036AA  20275.83714293  .00001935  00000-0  83001-4 0  9994
2 42789  97.2906 327.3237 0011584  19.8632 340.3055 15.23849475181996
VZLUSAT-1               
1 42790U 17036AB  20275.87851911  .00002639  00000-0  10899-3 0  9995
2 42790  97.2933 328.4995 0010948  17.3722 342.7888 15.24834778182067
ROBUSTA-1B              
1 42792U 17036AD  20275.84304885  .00001981  00000-0  84414-4 0  9991
2 42792  97.2909 327.6150 0011177  20.3633 339.8048 15.24051516182028
CICERO 6                
1 42793U 17036AE  20275.74676071  .00001299  00000-0  57587-4 0  9993
2 42793  97.2882 326.7847 0010677  23.8653 336.3077 15.23315736182048
D-SAT                   
1 42794U 17036AF  20275.85844323  .00000281  00000-0  29612-4 0  9991
2 42794  97.4863 303.2040 0126313  10.5545 349.8279 14.91329370178550
CORVUS BC2              
1 42846U 17042X   20275.79832261  .00000229  00000-0  27693-4 0  9996
2 42846  97.5060 154.4716 0008076 286.4618  73.5714 14.92143174175261
CORVUS BC1              
1 42847U 17042Y   20275.78678184  .00000045  00000-0  95788-5 0  9995
2 42847  97.5063 154.6496 0007720 285.6546  74.3822 14.92245190175268
MIRATA                  
1 43015U 17073C   20275.70507294  .00001778  00000-0  14066-3 0  9994
2 43015  97.7115 183.8570 0254116  62.0472 300.6213 14.79826314154939
MAKERSAT 0              
1 43016U 17073D   20275.69920143  .00001235  00000-0  99501-4 0  9991
2 43016  97.7149 184.0084 0257020  63.3959 299.3340 14.79342224154906
DELLINGR (RBLE)         
1 43021U 98067NJ  20275.90732187  .00028782  00000-0  20253-3 0  9995
2 43021  51.6333  94.6900 0001230 128.8984 231.2125 15.73874398163615
AEROCUBE 7B (OCSD B)    
1 43042U 17071F   20275.45350426  .00006610  00000-0  14974-3 0  9995
2 43042  51.6359 266.1585 0005120  74.8091 285.3461 15.44366315158757
AEROCUBE 7C (OCSD C)    
1 43043U 17071G   20275.45866229  .00006429  00000-0  14603-3 0  9996
2 43043  51.6358 266.2081 0005344  78.4754 281.6832 15.44338870158726
CHEFSAT                 
1 43044U 17071H   20275.41546687  .00015084  00000-0  27183-3 0  9990
2 43044  51.6359 247.4906 0005148  85.8011 274.3567 15.49986057158977
ASGARDIA 1              
1 43049U 17071N   20275.70939074  .00006188  00000-0  14088-3 0  9998
2 43049  51.6372 264.2192 0003053  90.8359 269.2977 15.44342984158771
ISARA                   
1 43050U 17071P   20275.34503905  .00013522  00000-0  25547-3 0  9992
2 43050  51.6343 251.3704 0003096  92.1368 267.9975 15.48739281158912
PROPCUBE 2 (FAUNA)      
1 43052U 17071R   20275.85661330  .00006821  00000-0  15171-3 0  9993
2 43052  51.6364 261.4677 0003072  89.2026 270.9313 15.44859443158818
CORVUS BC3              
1 43118U 18004H   20275.76791518  .00001206  00000-0  53416-4 0  9992
2 43118  97.4350 345.1290 0011424  46.1987 314.0193 15.23521833151188
MICROMAS-2A             
1 43131U 18004W   20275.78345479  .00002881  00000-0  11603-3 0  9991
2 43131  97.4410 347.2722 0010062  45.1109 315.0944 15.25636441151308
SPACEBEE-4              
1 43139U 18004AE  20275.85360853  .00003948  00000-0  15126-3 0  9999
2 43139  97.4450 348.7957 0009312  45.9833 314.2171 15.27088687151391
SPACEBEE-3              
1 43140U 18004AF  20275.86256156  .00004987  00000-0  18451-3 0  9990
2 43140  97.4470 349.6700 0008861  44.5404 315.6546 15.28115041151441
SPACEBEE-2              
1 43141U 18004AG  20275.75408724  .00005476  00000-0  20020-3 0  9998
2 43141  97.4485 349.8924 0008826  44.0945 316.0996 15.28464055151440
SPACEBEE-1              
1 43142U 18004AH  20275.69551007  .00005670  00000-0  20465-3 0  9994
2 43142  97.4491 350.1620 0008771  44.1088 316.0850 15.28872545151440
CICERO 7                
1 43143U 18004AJ  20275.84841878  .00002661  00000-0  10740-3 0  9992
2 43143  97.4386 347.4925 0008537  54.7012 305.5023 15.25647599151334
GOMX-4B                 
1 43196U 18015E   20275.89315402  .00000623  00000-0  28213-4 0  9997
2 43196  97.4525  43.7121 0020256  89.5149 270.8409 15.24455279148115
GOMX-4A                 
1 43197U 18015F   20275.90742622  .00001537  00000-0  64845-4 0  9994
2 43197  97.4506  43.8511 0020559  90.6647  24.3948 15.24664631148137
UBAKUSAT                
1 43467U 98067NQ  20275.77781165  .00071084  00000-0  32930-3 0  9992
2 43467  51.6324  92.1152 0001134 217.4450 142.6474 15.82798749136906
CUBERRT                 
1 43546U 98067NU  20275.78635885  .00035174  00000-0  19192-3 0  9993
2 43546  51.6312  93.7211 0001285 166.8372 193.2663 15.79549126127014
TEMPEST-D               
1 43547U 98067NV  20275.85127922  .00007932  00000-0  87937-4 0  9994
2 43547  51.6350 134.1821 0005213  99.2478 260.9107 15.64002690126169
RAINCUBE                
1 43548U 98067NW  20275.82706488  .00075239  00000-0  36271-3 0  9991
2 43548  51.6280 100.6635 0002818 175.7394 184.3633 15.81919462127053
HALOSAT                 
1 43549U 98067NX  20275.78038427  .00047033  00000-0  24936-3 0  9994
2 43549  51.6327 102.7428 0002942 164.2968 195.8126 15.80041889126586
